CCSDS_OMM_VERS = 2.0
CREATION_DATE  = 
ORIGINATOR     = 

OBJECT_NAME    = STARLINK-35986
OBJECT_ID      = 2025-281F
CENTER_NAME    = EARTH
REF_FRAME      = TEME
TIME_SYSTEM    = UTC
MEAN_ELEMENT_THEORY = SGP/SGP4

EPOCH          = 2025-12-21T06:00:00.999648
MEAN_MOTION    = 15.71383332
ECCENTRICITY   = .00013301
INCLINATION    = 43.0001
RA_OF_ASC_NODE = 70.3162
ARG_OF_PERICENTER = 278.6815
MEAN_ANOMALY   = 128.2554

EPHEMERIS_TYPE = 0
CLASSIFICATION_TYPE = U
NORAD_CAT_ID   = 66853
ELEMENT_SET_NO = 999
REV_AT_EPOCH   = 276
BSTAR          = -.16464555E-1
MEAN_MOTION_DOT = -.1917414E-1
MEAN_MOTION_DDOT = 0

CCSDS_OMM_VERS = 2.0
CREATION_DATE  = 
ORIGINATOR     = 

OBJECT_NAME    = STARLINK-36087
OBJECT_ID      = 2025-281G
CENTER_NAME    = EARTH
REF_FRAME      = TEME
TIME_SYSTEM    = UTC
MEAN_ELEMENT_THEORY = SGP/SGP4

EPOCH          = 2025-12-21T06:00:00.999648
MEAN_MOTION    = 15.71387122
ECCENTRICITY   = .00013172
INCLINATION    = 43.0003
RA_OF_ASC_NODE = 70.3116
ARG_OF_PERICENTER = 276.1713
MEAN_ANOMALY   = 132.6809

EPHEMERIS_TYPE = 0
CLASSIFICATION_TYPE = U
NORAD_CAT_ID   = 66854
ELEMENT_SET_NO = 999
REV_AT_EPOCH   = 276
BSTAR          = -.16508434E-1
MEAN_MOTION_DOT = -.1922209E-1
MEAN_MOTION_DDOT = 0

CCSDS_OMM_VERS = 2.0
CREATION_DATE  = 
ORIGINATOR     = 

OBJECT_NAME    = STARLINK-36090
OBJECT_ID      = 2025-281H
CENTER_NAME    = EARTH
REF_FRAME      = TEME
TIME_SYSTEM    = UTC
MEAN_ELEMENT_THEORY = SGP/SGP4

EPOCH          = 2025-12-21T06:00:00.999648
MEAN_MOTION    = 15.71388606
ECCENTRICITY   = .00013281
INCLINATION    = 43.0001
RA_OF_ASC_NODE = 70.3063
ARG_OF_PERICENTER = 273.4421
MEAN_ANOMALY   = 137.3282

EPHEMERIS_TYPE = 0
CLASSIFICATION_TYPE = U
NORAD_CAT_ID   = 66855
ELEMENT_SET_NO = 999
REV_AT_EPOCH   = 264
BSTAR          = -.16538027E-1
MEAN_MOTION_DOT = -.1925379E-1
MEAN_MOTION_DDOT = 0

CCSDS_OMM_VERS = 2.0
CREATION_DATE  = 
ORIGINATOR     = 

OBJECT_NAME    = STARLINK-36072
OBJECT_ID      = 2025-281J
CENTER_NAME    = EARTH
REF_FRAME      = TEME
TIME_SYSTEM    = UTC
MEAN_ELEMENT_THEORY = SGP/SGP4

EPOCH          = 2025-12-21T06:00:00.999648
MEAN_MOTION    = 15.71383686
ECCENTRICITY   = .00011645
INCLINATION    = 43.0003
RA_OF_ASC_NODE = 70.3016
ARG_OF_PERICENTER = 277.9693
MEAN_ANOMALY   = 134.7217

EPHEMERIS_TYPE = 0
CLASSIFICATION_TYPE = U
NORAD_CAT_ID   = 66856
ELEMENT_SET_NO = 999
REV_AT_EPOCH   = 276
BSTAR          = -.16520095E-1
MEAN_MOTION_DOT = -.1923049E-1
MEAN_MOTION_DDOT = 0

CCSDS_OMM_VERS = 2.0
CREATION_DATE  = 
ORIGINATOR     = 

OBJECT_NAME    = STARLINK-36083
OBJECT_ID      = 2025-281K
CENTER_NAME    = EARTH
REF_FRAME      = TEME
TIME_SYSTEM    = UTC
MEAN_ELEMENT_THEORY = SGP/SGP4

EPOCH          = 2025-12-21T06:00:00.999648
MEAN_MOTION    = 15.71385002
ECCENTRICITY   = .00011688
INCLINATION    = 43.0004
RA_OF_ASC_NODE = 70.2965
ARG_OF_PERICENTER = 280.2378
MEAN_ANOMALY   = 134.3698

EPHEMERIS_TYPE = 0
CLASSIFICATION_TYPE = U
NORAD_CAT_ID   = 66857
ELEMENT_SET_NO = 999
REV_AT_EPOCH   = 276
BSTAR          = -.16538187E-1
MEAN_MOTION_DOT = -.1925014E-1
MEAN_MOTION_DDOT = 0

CCSDS_OMM_VERS = 2.0
CREATION_DATE  = 
ORIGINATOR     = 

OBJECT_NAME    = STARLINK-35118
OBJECT_ID      = 2025-281L
CENTER_NAME    = EARTH
REF_FRAME      = TEME
TIME_SYSTEM    = UTC
MEAN_ELEMENT_THEORY = SGP/SGP4

EPOCH          = 2025-12-21T06:00:00.999648
MEAN_MOTION    = 15.71389520
ECCENTRICITY   = .00012689
INCLINATION    = 43.0002
RA_OF_ASC_NODE = 70.2917
ARG_OF_PERICENTER = 280.2756
MEAN_ANOMALY   = 136.2452

EPHEMERIS_TYPE = 0
CLASSIFICATION_TYPE = U
NORAD_CAT_ID   = 66858
ELEMENT_SET_NO = 999
REV_AT_EPOCH   = 254
BSTAR          = -.16576068E-1
MEAN_MOTION_DOT = -.1929324E-1
MEAN_MOTION_DDOT = 0

CCSDS_OMM_VERS = 2.0
CREATION_DATE  = 
ORIGINATOR     = 

OBJECT_NAME    = STARLINK-35646
OBJECT_ID      = 2025-281M
CENTER_NAME    = EARTH
REF_FRAME      = TEME
TIME_SYSTEM    = UTC
MEAN_ELEMENT_THEORY = SGP/SGP4

EPOCH          = 2025-12-21T06:00:00.999648
MEAN_MOTION    = 15.71386536
ECCENTRICITY   = .00011873
INCLINATION    = 43.0003
RA_OF_ASC_NODE = 70.2871
ARG_OF_PERICENTER = 282.0468
MEAN_ANOMALY   = 136.3927

EPHEMERIS_TYPE = 0
CLASSIFICATION_TYPE = U
NORAD_CAT_ID   = 66859
ELEMENT_SET_NO = 999
REV_AT_EPOCH   = 276
BSTAR          = -.1654508E-1
MEAN_MOTION_DOT = -.192585E-1
MEAN_MOTION_DDOT = 0

CCSDS_OMM_VERS = 2.0
CREATION_DATE  = 
ORIGINATOR     = 

OBJECT_NAME    = STARLINK-35987
OBJECT_ID      = 2025-281N
CENTER_NAME    = EARTH
REF_FRAME      = TEME
TIME_SYSTEM    = UTC
MEAN_ELEMENT_THEORY = SGP/SGP4

EPOCH          = 2025-12-21T06:00:00.999648
MEAN_MOTION    = 15.71388250
ECCENTRICITY   = .00011875
INCLINATION    = 43.0002
RA_OF_ASC_NODE = 70.2632
ARG_OF_PERICENTER = 274.1813
MEAN_ANOMALY   = 153.8420

EPHEMERIS_TYPE = 0
CLASSIFICATION_TYPE = U
NORAD_CAT_ID   = 66860
ELEMENT_SET_NO = 999
REV_AT_EPOCH   = 276
BSTAR          = -.16533901E-1
MEAN_MOTION_DOT = -.1924823E-1
MEAN_MOTION_DDOT = 0

CCSDS_OMM_VERS = 2.0
CREATION_DATE  = 
ORIGINATOR     = 

OBJECT_NAME    = STARLINK-35991
OBJECT_ID      = 2025-281P
CENTER_NAME    = EARTH
REF_FRAME      = TEME
TIME_SYSTEM    = UTC
MEAN_ELEMENT_THEORY = SGP/SGP4

EPOCH          = 2025-12-21T06:00:00.999648
MEAN_MOTION    = 15.71386033
ECCENTRICITY   = .00014294
INCLINATION    = 43.0019
RA_OF_ASC_NODE = 70.2780
ARG_OF_PERICENTER = 273.7371
MEAN_ANOMALY   = 148.5375

EPHEMERIS_TYPE = 0
CLASSIFICATION_TYPE = U
NORAD_CAT_ID   = 66861
ELEMENT_SET_NO = 999
REV_AT_EPOCH   = 276
BSTAR          = -.165302E-1
MEAN_MOTION_DOT = -.1924459E-1
MEAN_MOTION_DDOT = 0

CCSDS_OMM_VERS = 2.0
CREATION_DATE  = 
ORIGINATOR     = 

OBJECT_NAME    = STARLINK-35974
OBJECT_ID      = 2025-281Q
CENTER_NAME    = EARTH
REF_FRAME      = TEME
TIME_SYSTEM    = UTC
MEAN_ELEMENT_THEORY = SGP/SGP4

EPOCH          = 2025-12-21T06:00:00.999648
MEAN_MOTION    = 15.71386122
ECCENTRICITY   = .00011374
INCLINATION    = 42.9999
RA_OF_ASC_NODE = 70.2821
ARG_OF_PERICENTER = 280.4746
MEAN_ANOMALY   = 139.8824

EPHEMERIS_TYPE = 0
CLASSIFICATION_TYPE = U
NORAD_CAT_ID   = 66862
ELEMENT_SET_NO = 999
REV_AT_EPOCH   = 266
BSTAR          = -.16539064E-1
MEAN_MOTION_DOT = -.1925163E-1
MEAN_MOTION_DDOT = 0

CCSDS_OMM_VERS = 2.0
CREATION_DATE  = 
ORIGINATOR     = 

OBJECT_NAME    = STARLINK-36134
OBJECT_ID      = 2025-281R
CENTER_NAME    = EARTH
REF_FRAME      = TEME
TIME_SYSTEM    = UTC
MEAN_ELEMENT_THEORY = SGP/SGP4

EPOCH          = 2025-12-21T06:00:00.999648
MEAN_MOTION    = 15.71383447
ECCENTRICITY   = .00013585
INCLINATION    = 43.0020
RA_OF_ASC_NODE = 70.2734
ARG_OF_PERICENTER = 279.7369
MEAN_ANOMALY   = 144.4544

EPHEMERIS_TYPE = 0
CLASSIFICATION_TYPE = U
NORAD_CAT_ID   = 66863
ELEMENT_SET_NO = 999
REV_AT_EPOCH   = 276
BSTAR          = -.16471065E-1
MEAN_MOTION_DOT = -.1918114E-1
MEAN_MOTION_DDOT = 0

CCSDS_OMM_VERS = 2.0
CREATION_DATE  = 
ORIGINATOR     = 

OBJECT_NAME    = STARLINK-36070
OBJECT_ID      = 2025-281S
CENTER_NAME    = EARTH
REF_FRAME      = TEME
TIME_SYSTEM    = UTC
MEAN_ELEMENT_THEORY = SGP/SGP4

EPOCH          = 2025-12-21T06:00:00.999648
MEAN_MOTION    = 15.71388332
ECCENTRICITY   = .00012557
INCLINATION    = 43.0005
RA_OF_ASC_NODE = 70.2678
ARG_OF_PERICENTER = 279.7609
MEAN_ANOMALY   = 146.3446

EPHEMERIS_TYPE = 0
CLASSIFICATION_TYPE = U
NORAD_CAT_ID   = 66864
ELEMENT_SET_NO = 999
REV_AT_EPOCH   = 279
BSTAR          = -.16544416E-1
MEAN_MOTION_DOT = -.1925963E-1
MEAN_MOTION_DDOT = 0

CCSDS_OMM_VERS = 2.0
CREATION_DATE  = 
ORIGINATOR     = 

OBJECT_NAME    = STARLINK-36117
OBJECT_ID      = 2025-281T
CENTER_NAME    = EARTH
REF_FRAME      = TEME
TIME_SYSTEM    = UTC
MEAN_ELEMENT_THEORY = SGP/SGP4

EPOCH          = 2025-12-21T06:00:00.999648
MEAN_MOTION    = 15.71388406
ECCENTRICITY   = .00013169
INCLINATION    = 43.0002
RA_OF_ASC_NODE = 70.2589
ARG_OF_PERICENTER = 277.8313
MEAN_ANOMALY   = 152.1110

EPHEMERIS_TYPE = 0
CLASSIFICATION_TYPE = U
NORAD_CAT_ID   = 66865
ELEMENT_SET_NO = 999
REV_AT_EPOCH   = 276
BSTAR          = -.16553945E-1
MEAN_MOTION_DOT = -.1926998E-1
MEAN_MOTION_DDOT = 0

CCSDS_OMM_VERS = 2.0
CREATION_DATE  = 
ORIGINATOR     = 

OBJECT_NAME    = STARLINK-36126
OBJECT_ID      = 2025-281U
CENTER_NAME    = EARTH
REF_FRAME      = TEME
TIME_SYSTEM    = UTC
MEAN_ELEMENT_THEORY = SGP/SGP4

EPOCH          = 2025-12-21T06:00:00.999648
MEAN_MOTION    = 15.71389221
ECCENTRICITY   = .00012249
INCLINATION    = 43.0000
RA_OF_ASC_NODE = 70.2535
ARG_OF_PERICENTER = 280.3331
MEAN_ANOMALY   = 151.5231

EPHEMERIS_TYPE = 0
CLASSIFICATION_TYPE = U
NORAD_CAT_ID   = 66866
ELEMENT_SET_NO = 999
REV_AT_EPOCH   = 279
BSTAR          = -.16554574E-1
MEAN_MOTION_DOT = -.1927053E-1
MEAN_MOTION_DDOT = 0

CCSDS_OMM_VERS = 2.0
CREATION_DATE  = 
ORIGINATOR     = 

OBJECT_NAME    = STARLINK-36101
OBJECT_ID      = 2025-281V
CENTER_NAME    = EARTH
REF_FRAME      = TEME
TIME_SYSTEM    = UTC
MEAN_ELEMENT_THEORY = SGP/SGP4

EPOCH          = 2025-12-21T06:00:00.999648
MEAN_MOTION    = 15.71389423
ECCENTRICITY   = .00012403
INCLINATION    = 43.0001
RA_OF_ASC_NODE = 70.2486
ARG_OF_PERICENTER = 281.7243
MEAN_ANOMALY   = 152.0504

EPHEMERIS_TYPE = 0
CLASSIFICATION_TYPE = U
NORAD_CAT_ID   = 66867
ELEMENT_SET_NO = 999
REV_AT_EPOCH   = 260
BSTAR          = -.1657569E-1
MEAN_MOTION_DOT = -.1929257E-1
MEAN_MOTION_DDOT = 0

